OBJECT_NAME,OBJECT_ID,EPOCH,MEAN_MOTION,ECCENTRICITY,INCLINATION,RA_OF_ASC_NODE,ARG_OF_PERICENTER,MEAN_ANOMALY,EPHEMERIS_TYPE,CLASSIFICATION_TYPE,NORAD_CAT_ID,ELEMENT_SET_NO,REV_AT_EPOCH,BSTAR,MEAN_MOTION_DOT,MEAN_MOTION_DDOT
DMSP 5D-3 F16 (USA 172),2003-048A,2026-06-20T10:14:44.121120,14.14483136,.0007887,98.9889,195.2768,132.0538,331.9039,0,U,28054,999,16994,.37443E-5,-.38E-6,0
METEOSAT-9 (MSG-2),2005-049B,2026-06-19T22:17:31.522848,1.00273646,.00017746,9.3683,54.1432,346.4633,247.5699,0,U,28912,999,702,0,.115E-5,0
DMSP 5D-3 F17 (USA 191),2006-050A,2026-06-20T10:08:16.734624,14.14993196,.001106,98.7378,177.9264,51.0273,309.1884,0,U,29522,999,1288,.15609E-4,-.13E-6,0
FENGYUN 3A,2008-026A,2026-06-20T10:19:58.740672,14.19571712,.0009703,98.6883,112.2031,115.2254,244.9929,0,U,32958,999,93586,.46755E-4,.55E-6,0
GOES 14,2009-033A,2026-06-20T08:21:42.534144,1.00110067,.0001921,1.6993,83.0080,13.0479,77.9267,0,U,35491,999,662,0,-.308E-5,0
DMSP 5D-3 F18 (USA 210),2009-057A,2026-06-20T09:27:22.330944,14.14898526,.0009964,98.9038,152.1561,239.2588,120.7604,0,U,35951,999,86004,.13184E-3,.21E-5,0
EWS-G2 (GOES 15),2010-008A,2026-06-20T02:51:59.340384,1.00266729,.0004924,1.2866,82.8036,42.0631,250.1257,0,U,36411,999,5966,0,.15E-6,0
COMS 1,2010-032A,2026-06-20T02:57:21.691872,0.99163259,.001165,4.8136,75.3217,12.3209,286.7612,0,U,36744,999,5111,0,.87E-6,0
FENGYUN 3B,2010-059A,2026-06-21T13:37:46.183296,14.14844553,.0022188,98.9613,218.6016,171.6777,356.3576,0,U,37214,999,80804,.33905E-3,.611E-5,0
SUOMI NPP,2011-061A,2026-06-20T10:36:22.730400,14.19517985,.0001348,98.7953,112.2958,359.0198,1.0975,0,U,37849,999,75890,.5015E-4,.61E-6,0
METEOSAT-10 (MSG-3),2012-035B,2026-06-20T00:51:16.742016,1.00266543,.00014843,4.6793,61.0121,2.4454,217.8971,0,U,38552,999,5088,0,-.13E-6,0
METOP-B,2012-049A,2026-06-20T10:15:46.437120,14.21440128,.0002032,98.6503,222.8621,10.6441,349.4779,0,U,38771,999,71372,.47478E-4,.6E-6,0
INSAT-3D,2013-038B,2026-06-20T06:36:03.708288,1.00267986,.0000638,1.9351,82.5055,326.5441,87.9271,0,U,39216,999,4711,0,-.345E-5,0
FENGYUN 3C,2013-052A,2026-06-21T11:54:35.382240,14.15755814,.0015,98.4988,146.1733,15.7162,344.4476,0,U,39260,999,65917,.39296E-4,.36E-6,0
METEOR-M 2,2014-037A,2026-06-21T12:14:05.340192,14.21461368,.0006595,98.5120,148.0953,33.6763,326.4832,0,U,40069,999,61993,-.56554E-4,-.166E-5,0
HIMAWARI-8,2014-060A,2026-06-20T11:03:40.391424,1.00270806,.0001168,0.0187,51.4118,42.2924,121.5465,0,U,40267,999,4279,0,-.28E-5,0
FENGYUN 2G,2014-090A,2026-06-21T03:59:38.834016,1.00270539,.0003712,5.6502,72.7719,157.9383,198.2472,0,U,40367,999,4203,0,-.306E-5,0
METEOSAT-11 (MSG-4),2015-034A,2026-06-20T07:44:19.508928,1.00264042,.00024,3.2087,71.0883,346.3671,336.7454,0,U,40732,999,724,0,.57E-6,0
ELEKTRO-L 2,2015-074A,2026-06-18T00:52:34.633344,1.00270556,.00009025,6.6975,70.5132,256.1704,298.2263,0,U,41105,999,3851,0,-.126E-5,0
SENTINEL-3A,2016-011A,2026-06-20T10:37:14.661120,14.26733412,.0001418,98.6248,238.7795,99.3701,260.7640,0,U,41335,999,53852,.37722E-4,.48E-6,0
INSAT-3DR,2016-054A,2026-06-20T09:45:36.464256,1.00271300,.0010425,0.1148,86.2468,187.4441,215.2920,0,U,41752,999,3585,0,-.81E-6,0
HIMAWARI-9,2016-064A,2026-06-20T11:03:40.387968,1.00270283,.0000932,0.0140,351.6731,111.3358,112.3453,0,U,41836,999,3524,0,0,0
GOES 16,2016-071A,2026-06-20T08:30:38.771424,1.00271436,.0000306,0.3504,85.5238,339.5740,226.4328,0,U,41866,999,3513,0,-.95E-6,0
FENGYUN 4A,2016-077A,2026-06-21T13:22:18.350976,1.00266450,.0008569,2.3350,80.2401,153.4835,0.2982,0,U,41882,999,3497,0,-.359E-5,0
CYGFM05,2016-078A,2026-06-20T07:43:16.214016,15.56789762,.0007362,34.9559,239.8312,181.9302,178.1395,0,U,41884,999,52924,.26251E-3,.19452E-3,0
CYGFM04,2016-078B,2026-06-20T09:50:58.767360,15.61665288,.0007079,34.9311,206.7708,223.5840,136.4326,0,U,41885,999,52950,.28119E-3,.25123E-3,0
CYGFM02,2016-078C,2026-06-20T09:43:02.673120,15.64678561,.0008091,34.9392,201.2489,224.9077,135.0995,0,U,41886,999,52967,.28782E-3,.28987E-3,0
CYGFM01,2016-078D,2026-06-20T07:25:02.692416,15.57471223,.0007062,34.9389,240.9472,175.8238,184.2546,0,U,41887,999,52919,.26751E-3,.20338E-3,0
CYGFM08,2016-078E,2026-06-20T10:55:23.562048,15.60162461,.0008738,34.9419,219.4708,207.6434,152.3827,0,U,41888,999,52948,.26567E-3,.22398E-3,0
CYGFM07,2016-078G,2026-06-20T09:56:16.048032,15.60258013,.0007489,34.9433,208.0826,222.6573,137.3571,0,U,41890,999,52950,.2688E-3,.22736E-3,0
CYGFM03,2016-078H,2026-06-20T10:46:40.398816,15.60252937,.0006918,34.9390,209.7861,211.7965,148.2343,0,U,41891,999,52948,.25786E-3,.21797E-3,0
